sat00932
1 00932U 64076B   20046.54620422  .00000153  00000-0  45128-4 0  9997
2 00932  81.3452 352.8645 1132958  98.3369 274.7537 12.63993662526576
